KUIPER-00112            
1 65150U 25171U   26001.45406512 -.00003521  00000+0 -43305-3 0  9999
2 65150  51.9031  92.9151 0009432 307.4913  52.5191 14.79872220 22964
KUIPER-00114            
1 65151U 25171V   26001.60128537  .00002844  00000+0  40237-3 0  9991
2 65151  51.8990 112.2704 0005266 236.6689 123.3769 14.79891136 22709
KUIPER-00115            
1 65152U 25171W   26001.47427557  .00008915  00000+0  11951-2 0  9996
2 65152  51.9008 105.3133 0009090 264.9530  95.0395 14.79977508 22795
KUIPER-00116            
1 65153U 25171X   26001.70525758  .00005787  00000+0  78692-3 0  9995
2 65153  51.9009 109.3347 0009116 230.0537 129.9625 14.79951687 22757
KUIPER-00118            
1 65154U 25171Y   26001.49999690  .00009681  00000+0  12967-2 0  9991
2 65154  51.9004 112.6975 0000542 248.8355 111.2549 14.79945701 22698
KUIPER-00119            
1 65155U 25171Z   26001.58106895  .00010336  00000+0  13824-2 0  9991
2 65155  51.9009  99.9230 0007478 260.7661  99.2456 14.79930326 22872
KUIPER-00120            
1 65762U 25217A   26002.00003472  .00001108  00000+0  18805-3 0  9993
2 65762  51.8996 346.8842 0003397  87.0238  11.0787 14.76540975  5356
KUIPER-00132            
1 65763U 25217B   26001.13545716  .00064625  00000+0  17049-2 0  9990
2 65763  51.8626 330.8992 0008218  78.2634 281.9274 15.37841781 15026
